OBJECT_NAME,OBJECT_ID,EPOCH,MEAN_MOTION,ECCENTRICITY,INCLINATION,RA_OF_ASC_NODE,ARG_OF_PERICENTER,MEAN_ANOMALY,EPHEMERIS_TYPE,CLASSIFICATION_TYPE,NORAD_CAT_ID,ELEMENT_SET_NO,REV_AT_EPOCH,BSTAR,MEAN_MOTION_DOT,MEAN_MOTION_DDOT
FENGYUN 1C DEB,1999-025BYK,2026-06-10T21:24:29.876544,14.14806660,.00339762,98.8073,215.9150,117.3150,243.1490,0,U,31544,999,98304,.52056982E-3,.966E-5,0
FENGYUN 1C DEB,1999-025BYM,2026-06-10T21:34:01.396128,14.14269959,.0140428,98.2284,222.3237,336.4320,23.0462,0,U,31546,999,97334,.99725139E-3,.2053E-4,0
FENGYUN 1C DEB,1999-025BYN,2026-06-04T23:24:14.423616,14.24182007,.00544606,99.0716,210.3292,114.2291,246.4591,0,U,31547,999,66496,.14477805E-2,.3342E-4,0
FENGYUN 1C DEB,1999-025BYR,2026-06-04T05:04:41.038176,14.41012591,.01908245,98.3156,154.9591,109.4613,252.7302,0,U,31550,999,67952,.62336038E-3,.2442E-4,0
FENGYUN 1C DEB,1999-025BYT,2026-06-10T02:04:11.148096,14.50209746,.00836856,98.6252,291.5789,198.0955,161.7255,0,U,31552,999,98472,.29945925E-2,.12153E-3,0
FENGYUN 1C DEB,1999-025BYU,2026-06-01T03:31:09.625152,14.31606559,.00260731,98.9903,217.8365,322.7361,65.8514,0,U,31553,999,98347,.15886784E-2,.42E-4,0
FENGYUN 1C DEB,1999-025BYV,2026-05-31T09:11:17.139264,14.56124300,.0035416,98.9125,301.2496,222.9537,136.8892,0,U,31554,999,67322,.37993631E-2,.16891E-3,0
FENGYUN 1C DEB,1999-025BYW,2026-06-11T15:26:05.352864,14.46823340,.01506143,99.1160,135.1020,20.3133,340.3963,0,U,31555,999,99177,.15948587E-2,.6607E-4,0
FENGYUN 1C DEB,1999-025BYZ,2026-06-09T06:15:52.839936,14.39032123,.0212093,98.7782,65.0412,92.5321,34.3124,0,U,31558,999,1,.20174E-3,.757E-5,0
FENGYUN 1C DEB,1999-025BZA,2026-06-12T05:11:43.612800,14.66442429,.00532784,98.8766,136.5892,357.3179,18.9774,0,U,31559,999,211,.12953827E-2,.7269E-4,0
FENGYUN 1C DEB,1999-025BZB,2026-06-12T19:46:48.142848,14.21273570,.0121565,98.5630,199.7578,139.8886,221.1345,0,U,31560,999,99205,.5368E-4,.85E-6,0
FENGYUN 1C DEB,1999-025BZC,2026-06-12T05:02:02.213376,14.03006574,.00572554,98.7241,156.6806,36.6712,338.3695,0,U,31561,999,97723,.41132775E-3,.606E-5,0
FENGYUN 1C DEB,1999-025BZD,2026-06-08T04:56:27.720960,14.43151407,.005766,99.2769,331.0609,121.3539,239.3309,0,U,31562,999,99549,.73712E-3,.2475E-4,0
FENGYUN 1C DEB,1999-025BZE,2026-06-10T06:54:06.194016,14.66660225,.010992,98.9706,336.1201,245.3081,113.6645,0,U,31563,999,1159,.38663E-3,.2287E-4,0
FENGYUN 1C DEB,1999-025BZG,2026-06-12T00:37:19.631424,14.42657138,.00483022,100.7147,85.6556,239.8551,119.7840,0,U,31565,999,66964,.20184077E-2,.6748E-4,0
FENGYUN 1C DEB,1999-025BZH,2026-06-11T10:44:20.048064,14.39509450,.00266,98.9391,233.8537,177.1124,316.0420,0,U,31566,999,98989,.13813E-2,.428E-4,0
FENGYUN 1C DEB,1999-025BZJ,2026-06-10T23:50:42.427104,13.94455384,.01808032,102.3110,92.8795,235.1599,123.2429,0,U,31567,999,69920,.17404752E-2,.2588E-4,0
FENGYUN 1C DEB,1999-025BZK,2026-06-12T02:15:56.638656,14.05051560,.01302537,102.0491,108.7585,31.3765,329.5081,0,U,31568,999,97125,.2040215E-2,.348E-4,0
FENGYUN 1C DEB,1999-025BZL,2026-06-11T09:37:41.926080,13.96991712,.0172489,102.6136,30.8298,297.3986,246.3062,0,U,31569,999,96200,.13923E-2,.2128E-4,0
FENGYUN 1C DEB,1999-025BZM,2026-06-10T01:29:43.838016,14.28269667,.01445246,102.5683,282.3233,135.2133,226.0807,0,U,31570,999,65924,.34901458E-2,.9672E-4,0
FENGYUN 1C DEB,1999-025BZN,2026-06-10T14:35:01.657248,14.89014366,.01383795,98.3976,294.9823,173.8063,186.4905,0,U,31608,999,1288,.68821044E-3,.7684E-4,0
FENGYUN 1C DEB,1999-025BZP,2026-06-03T08:23:38.355936,14.17141138,.00920519,99.1973,193.7688,191.0805,233.5734,0,U,31609,999,68528,.18954085E-2,.3936E-4,0
FENGYUN 1C DEB,1999-025BZT,2026-06-09T17:16:43.141728,13.64026326,.03414813,98.4369,329.3676,352.2064,7.3855,0,U,31613,999,94201,.8783245E-3,.1002E-4,0
FENGYUN 1C DEB,1999-025BZV,2026-06-11T10:08:41.013024,14.39481154,.0159047,99.1419,230.2369,147.9004,213.1988,0,U,31615,999,67874,.2798E-2,.10076E-3,0
FENGYUN 1C DEB,1999-025BZY,2026-06-09T04:24:31.164192,14.21368109,.0157047,99.4674,320.6945,181.8914,178.1686,0,U,31618,999,72799,.33146E-3,.769E-5,0
FENGYUN 1C DEB,1999-025BZZ,2026-06-11T08:58:08.798880,15.09255255,.0059072,99.0605,28.6636,70.1615,290.5963,0,U,31619,999,66191,.40206E-2,.67155E-3,0
FENGYUN 1C DEB,1999-025CAA,2026-06-05T12:34:47.758368,14.39622512,.00199832,98.8829,251.6256,237.1427,122.7836,0,U,31620,999,68357,.21190217E-2,.6597E-4,0
FENGYUN 1C DEB,1999-025CAC,2026-06-11T13:28:01.784928,14.39283187,.0017282,98.8167,267.0701,164.0003,318.2385,0,U,31622,999,98371,.1513E-2,.4661E-4,0
FENGYUN 1C DEB,1999-025CAD,2026-06-12T05:40:16.233600,13.82766483,.01928902,97.6257,345.5942,219.1815,139.5247,0,U,31623,999,60428,.32969213E-3,.382E-5,0
FENGYUN 1C DEB,1999-025CAF,2026-06-11T12:42:00.612000,14.55764968,.014826,98.8015,263.3085,184.3682,192.1516,0,U,31625,999,995,.17886E-3,.848E-5,0
