FENGYUN 1C DEB          
1 31544U 99025BYK 26161.89201246  .00000966  00000+0  52057-3 0  9992
2 31544  98.8073 215.9150 0033976 117.3150 243.1490 14.14806660983046
FENGYUN 1C DEB          
1 31546U 99025BYM 26161.89862727  .00002053  00000+0  99725-3 0  9993
2 31546  98.2284 222.3237 0140428 336.4320  23.0462 14.14269959973348
FENGYUN 1C DEB          
1 31547U 99025BYN 26155.97516694  .00003342  00000+0  14478-2 0  9998
2 31547  99.0716 210.3292 0054460 114.2291 246.4591 14.24182007664963
FENGYUN 1C DEB          
1 31550U 99025BYR 26155.21158609  .00002442  00000+0  62336-3 0  9994
2 31550  98.3156 154.9591 0190824 109.4613 252.7302 14.41012591679528
FENGYUN 1C DEB          
1 31552U 99025BYT 26161.08624014  .00012153  00000+0  29946-2 0  9995
2 31552  98.6252 291.5789 0083685 198.0955 161.7255 14.50209746984723
FENGYUN 1C DEB          
1 31553U 99025BYU 26152.14663918  .00004200  00000+0  15887-2 0  9992
2 31553  98.9903 217.8365 0026073 322.7361  65.8514 14.31606559983471
FENGYUN 1C DEB          
1 31554U 99025BYV 26151.38283726  .00016891  00000+0  37994-2 0  9995
2 31554  98.9125 301.2496 0035416 222.9537 136.8892 14.56124300673221
FENGYUN 1C DEB          
1 31555U 99025BYW 26162.64311751  .00006607  00000+0  15949-2 0  9997
2 31555  99.1160 135.1020 0150614  20.3133 340.3963 14.46823340991774
FENGYUN 1C DEB          
1 31558U 99025BYZ 26160.26102824  .00000757  00000+0  20174-3 0  9992
2 31558  98.7782  65.0412 0212093  92.5321  34.3124 14.39032123    18
FENGYUN 1C DEB          
1 31559U 99025BZA 26163.21647700  .00007269  00000+0  12954-2 0  9999
2 31559  98.8766 136.5892 0053278 357.3179  18.9774 14.66442429  2115
FENGYUN 1C DEB          
1 31560U 99025BZB 26163.82416832  .00000085  00000+0  53680-4 0  9990
2 31560  98.5630 199.7578 0121565 139.8886 221.1345 14.21273570992052
FENGYUN 1C DEB          
1 31561U 99025BZC 26163.20974784  .00000606  00000+0  41133-3 0  9996
2 31561  98.7241 156.6806 0057255  36.6712 338.3695 14.03006574977235
FENGYUN 1C DEB          
1 31562U 99025BZD 26159.20587640  .00002475  00000+0  73712-3 0  9997
2 31562  99.2769 331.0609 0057660 121.3539 239.3309 14.43151407995496
FENGYUN 1C DEB          
1 31563U 99025BZE 26161.28757169  .00002287  00000+0  38663-3 0  9991
2 31563  98.9706 336.1201 0109920 245.3081 113.6645 14.66660225 11599
FENGYUN 1C DEB          
1 31565U 99025BZG 26163.02592166  .00006748  00000+0  20184-2 0  9995
2 31565 100.7147  85.6556 0048302 239.8551 119.7840 14.42657138669649
FENGYUN 1C DEB          
1 31566U 99025BZH 26162.44745426  .00004280  00000+0  13813-2 0  9990
2 31566  98.9391 233.8537 0026600 177.1124 316.0420 14.39509450989899
FENGYUN 1C DEB          
1 31567U 99025BZJ 26161.99354661  .00002588  00000+0  17405-2 0  9997
2 31567 102.3110  92.8795 0180803 235.1599 123.2429 13.94455384699201
FENGYUN 1C DEB          
1 31568U 99025BZK 26163.09440554  .00003480  00000+0  20402-2 0  9991
2 31568 102.0491 108.7585 0130253  31.3765 329.5081 14.05051560971254
FENGYUN 1C DEB          
1 31569U 99025BZL 26162.40117970  .00002128  00000+0  13923-2 0  9997
2 31569 102.6136  30.8298 0172489 297.3986 246.3062 13.96991712962008
FENGYUN 1C DEB          
1 31570U 99025BZM 26161.06231294  .00009672  00000+0  34901-2 0  9996
2 31570 102.5683 282.3233 0144524 135.2133 226.0807 14.28269667659246
FENGYUN 1C DEB          
1 31608U 99025BZN 26161.60765807  .00007684  00000+0  68821-3 0  9990
2 31608  98.3976 294.9823 0138379 173.8063 186.4905 14.89014366 12882
FENGYUN 1C DEB          
1 31609U 99025BZP 26154.34974949  .00003936  00000+0  18954-2 0  9990
2 31609  99.1973 193.7688 0092051 191.0805 233.5734 14.17141138685289
FENGYUN 1C DEB          
1 31613U 99025BZT 26160.71994377  .00001002  00000+0  87832-3 0  9994
2 31613  98.4369 329.3676 0341481 352.2064   7.3855 13.64026326942011
FENGYUN 1C DEB          
1 31615U 99025BZV 26162.42269691  .00010076  00000+0  27980-2 0  9998
2 31615  99.1419 230.2369 0159047 147.9004 213.1988 14.39481154678741
FENGYUN 1C DEB          
1 31618U 99025BZY 26160.18369403  .00000769  00000+0  33146-3 0  9994
2 31618  99.4674 320.6945 0157047 181.8914 178.1686 14.21368109727991
FENGYUN 1C DEB          
1 31619U 99025BZZ 26162.37371295  .00067155  00000+0  40206-2 0  9996
2 31619  99.0605  28.6636 0059072  70.1615 290.5963 15.09255255661911
FENGYUN 1C DEB          
1 31620U 99025CAA 26156.52416387  .00006597  00000+0  21190-2 0  9994
2 31620  98.8829 251.6256 0019983 237.1427 122.7836 14.39622512683574
FENGYUN 1C DEB          
1 31622U 99025CAC 26162.56113177  .00004661  00000+0  15130-2 0  9995
2 31622  98.8167 267.0701 0017282 164.0003 318.2385 14.39283187983716
FENGYUN 1C DEB          
1 31623U 99025CAD 26163.23629900  .00000382  00000+0  32969-3 0  9993
2 31623  97.6257 345.5942 0192890 219.1815 139.5247 13.82766483604280
FENGYUN 1C DEB          
1 31625U 99025CAF 26162.52917375  .00000848  00000+0  17886-3 0  9990
2 31625  98.8015 263.3085 0148260 184.3682 192.1516 14.55764968  9953
